[{"OBJECT_NAME":"INMARSAT GX5","OBJECT_ID":"2019-080B","EPOCH":"2026-04-26T06:36:38.677824","MEAN_MOTION":1.00269427,"ECCENTRICITY":0.0001699,"INCLINATION":0.047,"RA_OF_ASC_NODE":20.5677,"ARG_OF_PERICENTER":11.2674,"MEAN_ANOMALY":292.6188,"EPHEMERIS_TYPE":0,"CLASSIFICATION_TYPE":"U","NORAD_CAT_ID":44801,"ELEMENT_SET_NO":999,"REV_AT_EPOCH":626,"BSTAR":0,"MEAN_MOTION_DOT":6.2e-7,"MEAN_MOTION_DDOT":0},{"OBJECT_NAME":"JCSAT-18 (KACIFIC 1)","OBJECT_ID":"2019-091A","EPOCH":"2026-04-26T10:51:32.414400","MEAN_MOTION":1.00270873,"ECCENTRICITY":1.27e-5,"INCLINATION":0.0204,"RA_OF_ASC_NODE":347.3599,"ARG_OF_PERICENTER":289.649,"MEAN_ANOMALY":250.3443,"EPHEMERIS_TYPE":0,"CLASSIFICATION_TYPE":"U","NORAD_CAT_ID":44868,"ELEMENT_SET_NO":999,"REV_AT_EPOCH":2349,"BSTAR":0,"MEAN_MOTION_DOT":-2.13e-6,"MEAN_MOTION_DDOT":0},{"OBJECT_NAME":"ELEKTRO-L 3","OBJECT_ID":"2019-095A","EPOCH":"2026-04-26T12:13:02.776224","MEAN_MOTION":1.00271264,"ECCENTRICITY":0.000108,"INCLINATION":0.1252,"RA_OF_ASC_NODE":75.736,"ARG_OF_PERICENTER":295.05,"MEAN_ANOMALY":102.9252,"EPHEMERIS_TYPE":0,"CLASSIFICATION_TYPE":"U","NORAD_CAT_ID":44903,"ELEMENT_SET_NO":999,"REV_AT_EPOCH":2319,"BSTAR":0,"MEAN_MOTION_DOT":-1.08e-6,"MEAN_MOTION_DDOT":0},{"OBJECT_NAME":"SHIJIAN-20 (SJ-20)","OBJECT_ID":"2019-097A","EPOCH":"2026-04-26T12:04:03.636768","MEAN_MOTION":1.00274333,"ECCENTRICITY":0.0011524,"INCLINATION":4.7895,"RA_OF_ASC_NODE":75.6805,"ARG_OF_PERICENTER":51.5438,"MEAN_ANOMALY":313.0471,"EPHEMERIS_TYPE":0,"CLASSIFICATION_TYPE":"U","NORAD_CAT_ID":44910,"ELEMENT_SET_NO":999,"REV_AT_EPOCH":2318,"BSTAR":0,"MEAN_MOTION_DOT":1.27e-6,"MEAN_MOTION_DDOT":0},{"OBJECT_NAME":"TJS-5","OBJECT_ID":"2020-002A","EPOCH":"2026-04-26T12:22:01.913952","MEAN_MOTION":1.00271513,"ECCENTRICITY":0.0006161,"INCLINATION":0.1402,"RA_OF_ASC_NODE":270.8865,"ARG_OF_PERICENTER":123.2109,"MEAN_ANOMALY":113.4399,"EPHEMERIS_TYPE":0,"CLASSIFICATION_TYPE":"U","NORAD_CAT_ID":44978,"ELEMENT_SET_NO":999,"REV_AT_EPOCH":2318,"BSTAR":0,"MEAN_MOTION_DOT":-3.54e-6,"MEAN_MOTION_DDOT":0},{"OBJECT_NAME":"GSAT-30","OBJECT_ID":"2020-005A","EPOCH":"2026-04-26T12:15:02.582784","MEAN_MOTION":1.00268441,"ECCENTRICITY":0.0002778,"INCLINATION":0.0192,"RA_OF_ASC_NODE":124.3236,"ARG_OF_PERICENTER":305.3557,"MEAN_ANOMALY":51.6063,"EPHEMERIS_TYPE":0,"CLASSIFICATION_TYPE":"U","NORAD_CAT_ID":45026,"ELEMENT_SET_NO":999,"REV_AT_EPOCH":2299,"BSTAR":0,"MEAN_MOTION_DOT":0,"MEAN_MOTION_DDOT":0},{"OBJECT_NAME":"EUTELSAT KONNECT","OBJECT_ID":"2020-005B","EPOCH":"2026-04-26T08:28:05.882304","MEAN_MOTION":1.00270143,"ECCENTRICITY":0.0001998,"INCLINATION":0.0688,"RA_OF_ASC_NODE":89.4434,"ARG_OF_PERICENTER":204.507,"MEAN_ANOMALY":54.6374,"EPHEMERIS_TYPE":0,"CLASSIFICATION_TYPE":"U","NORAD_CAT_ID":45027,"ELEMENT_SET_NO":999,"REV_AT_EPOCH":2381,"BSTAR":0,"MEAN_MOTION_DOT":3.7e-7,"MEAN_MOTION_DDOT":0},{"OBJECT_NAME":"JCSAT-17","OBJECT_ID":"2020-013A","EPOCH":"2026-04-25T22:48:48.354624","MEAN_MOTION":1.00272021,"ECCENTRICITY":0.00040251,"INCLINATION":5.3943,"RA_OF_ASC_NODE":356.372,"ARG_OF_PERICENTER":24.9691,"MEAN_ANOMALY":310.8132,"EPHEMERIS_TYPE":0,"CLASSIFICATION_TYPE":"U","NORAD_CAT_ID":45245,"ELEMENT_SET_NO":999,"REV_AT_EPOCH":2270,"BSTAR":0,"MEAN_MOTION_DOT":-3.35e-6,"MEAN_MOTION_DDOT":0},{"OBJECT_NAME":"GEO-KOMPSAT-2B","OBJECT_ID":"2020-013B","EPOCH":"2026-04-26T10:01:38.435808","MEAN_MOTION":1.00268205,"ECCENTRICITY":0.0001028,"INCLINATION":0.012,"RA_OF_ASC_NODE":259.5863,"ARG_OF_PERICENTER":81.6823,"MEAN_ANOMALY":151.8341,"EPHEMERIS_TYPE":0,"CLASSIFICATION_TYPE":"U","NORAD_CAT_ID":45246,"ELEMENT_SET_NO":999,"REV_AT_EPOCH":2276,"BSTAR":0,"MEAN_MOTION_DOT":0,"MEAN_MOTION_DDOT":0},{"OBJECT_NAME":"BEIDOU-3 G2","OBJECT_ID":"2020-017A","EPOCH":"2026-04-26T12:14:10.168224","MEAN_MOTION":1.00271418,"ECCENTRICITY":0.0002527,"INCLINATION":2.7623,"RA_OF_ASC_NODE":46.5278,"ARG_OF_PERICENTER":347.1589,"MEAN_ANOMALY":84.4073,"EPHEMERIS_TYPE":0,"CLASSIFICATION_TYPE":"U","NORAD_CAT_ID":45344,"ELEMENT_SET_NO":999,"REV_AT_EPOCH":2274,"BSTAR":0,"MEAN_MOTION_DOT":-1.51e-6,"MEAN_MOTION_DDOT":0},{"OBJECT_NAME":"AEHF-6 (USA 298)","OBJECT_ID":"2020-022B","EPOCH":"2026-04-26T10:47:55.260096","MEAN_MOTION":1.00271288,"ECCENTRICITY":0.0046324,"INCLINATION":2.6634,"RA_OF_ASC_NODE":300.5223,"ARG_OF_PERICENTER":17.8083,"MEAN_ANOMALY":195.8781,"EPHEMERIS_TYPE":0,"CLASSIFICATION_TYPE":"U","NORAD_CAT_ID":45465,"ELEMENT_SET_NO":999,"REV_AT_EPOCH":2249,"BSTAR":0,"MEAN_MOTION_DOT":-3.15e-6,"MEAN_MOTION_DDOT":0},{"OBJECT_NAME":"BEIDOU-3 G3","OBJECT_ID":"2020-040A","EPOCH":"2026-04-26T12:27:08.906976","MEAN_MOTION":1.00270512,"ECCENTRICITY":0.0003731,"INCLINATION":2.3224,"RA_OF_ASC_NODE":67.2935,"ARG_OF_PERICENTER":329.1363,"MEAN_ANOMALY":115.419,"EPHEMERIS_TYPE":0,"CLASSIFICATION_TYPE":"U","NORAD_CAT_ID":45807,"ELEMENT_SET_NO":999,"REV_AT_EPOCH":2155,"BSTAR":0,"MEAN_MOTION_DOT":-3.64e-6,"MEAN_MOTION_DDOT":0},{"OBJECT_NAME":"APSTAR-6D","OBJECT_ID":"2020-045A","EPOCH":"2026-04-24T20:05:05.213760","MEAN_MOTION":1.00271734,"ECCENTRICITY":0.00030073,"INCLINATION":0.0529,"RA_OF_ASC_NODE":81.5973,"ARG_OF_PERICENTER":9.9326,"MEAN_ANOMALY":196.6399,"EPHEMERIS_TYPE":0,"CLASSIFICATION_TYPE":"U","NORAD_CAT_ID":45863,"ELEMENT_SET_NO":999,"REV_AT_EPOCH":2132,"BSTAR":0,"MEAN_MOTION_DOT":-3.32e-6,"MEAN_MOTION_DDOT":0},{"OBJECT_NAME":"KOREASAT 116","OBJECT_ID":"2020-048A","EPOCH":"2026-04-26T12:24:16.697088","MEAN_MOTION":1.00274663,"ECCENTRICITY":9.19e-5,"INCLINATION":0.0138,"RA_OF_ASC_NODE":271.99,"ARG_OF_PERICENTER":113.0536,"MEAN_ANOMALY":131.7283,"EPHEMERIS_TYPE":0,"CLASSIFICATION_TYPE":"U","NORAD_CAT_ID":45920,"ELEMENT_SET_NO":999,"REV_AT_EPOCH":2112,"BSTAR":0,"MEAN_MOTION_DOT":-3.74e-6,"MEAN_MOTION_DDOT":0},{"OBJECT_NAME":"EXPRESS 103","OBJECT_ID":"2020-053A","EPOCH":"2026-04-24T14:06:41.530752","MEAN_MOTION":1.00271329,"ECCENTRICITY":5.393e-5,"INCLINATION":0.0139,"RA_OF_ASC_NODE":255.8354,"ARG_OF_PERICENTER":23.7967,"MEAN_ANOMALY":241.1699,"EPHEMERIS_TYPE":0,"CLASSIFICATION_TYPE":"U","NORAD_CAT_ID":45985,"ELEMENT_SET_NO":999,"REV_AT_EPOCH":2111,"BSTAR":0,"MEAN_MOTION_DOT":-2.95e-6,"MEAN_MOTION_DDOT":0},{"OBJECT_NAME":"EXPRESS 80","OBJECT_ID":"2020-053B","EPOCH":"2026-04-24T04:33:17.812800","MEAN_MOTION":1.00439847,"ECCENTRICITY":0.00103192,"INCLINATION":0.0234,"RA_OF_ASC_NODE":276.1549,"ARG_OF_PERICENTER":169.794,"MEAN_ANOMALY":274.1604,"EPHEMERIS_TYPE":0,"CLASSIFICATION_TYPE":"U","NORAD_CAT_ID":45986,"ELEMENT_SET_NO":999,"REV_AT_EPOCH":2109,"BSTAR":0,"MEAN_MOTION_DOT":-1.83e-6,"MEAN_MOTION_DDOT":0},{"OBJECT_NAME":"BSAT-4B","OBJECT_ID":"2020-056A","EPOCH":"2026-04-26T12:22:39.352800","MEAN_MOTION":1.00270713,"ECCENTRICITY":0.0003054,"INCLINATION":0.0696,"RA_OF_ASC_NODE":108.1135,"ARG_OF_PERICENTER":345.3873,"MEAN_ANOMALY":56.5065,"EPHEMERIS_TYPE":0,"CLASSIFICATION_TYPE":"U","NORAD_CAT_ID":46112,"ELEMENT_SET_NO":999,"REV_AT_EPOCH":2087,"BSTAR":0,"MEAN_MOTION_DOT":-3.62e-6,"MEAN_MOTION_DDOT":0}]
